SL-16 R/B               
1 25400U 98043G   26008.39072170  .00000092  00000+0  57644-4 0  9990
2 25400  98.8162 321.3630 0009687 183.3486 176.7631 14.26033241430394
SL-16 R/B               
1 25407U 98045B   26008.53488946 -.00000172  00000+0 -62778-4 0  9992
2 25407  71.0123 308.0770 0005371 129.8455 230.3142 14.16180726418586
ISS (ZARYA)             
1 25544U 98067A   26008.88709191  .00008359  00000+0  15864-3 0  9990
2 25544  51.6333   8.0698 0007663 356.5554   3.5381 15.49180370547069
CZ-4B R/B               
1 25732U 99025C   26008.56947465  .00000056  00000+0  47925-4 0  9997
2 25732  98.6731  54.2444 0037569 156.4743 323.6121 14.18251200379649
OKEAN-O                 
1 25860U 99039A   26008.42402607  .00000930  00000+0  12921-3 0  9991
2 25860  97.9562  68.8903 0001520 111.7860 248.3514 14.80217337425472
SL-16 R/B               
1 25861U 99039B   26008.59614538  .00000774  00000+0  10508-3 0  9993
2 25861  98.0086  67.7441 0016167  92.4713 267.8351 14.81634284427962
DELTA 2 R/B             
1 25876U 99041E   26008.61983080  .00003052  00000+0  52829-3 0  9990
2 25876  51.7599 181.1360 0503902 170.9938 190.0463 14.11515736354540
HELIOS 1B               
1 25977U 99064A   26008.64616021  .00002395  00000+0  27112-3 0  9994
2 25977  98.1744 269.1112 0000314  97.0106 263.1145 14.87417922676330
TERRA                   
1 25994U 99068A   26009.00425993  .00000436  00000+0  98131-4 0  9998
2 25994  97.9710  64.6829 0002754  38.0462  79.4384 14.60938520386369
SL-16 R/B               
1 26070U 00006B   26008.60530055 -.00000094  00000+0 -23585-4 0  9992
2 26070  71.0012 224.1708 0018979 272.7293  87.1657 14.15815848340059
TITAN 4B R/B            
1 26474U 00047B   26008.65584157  .00003988  00000+0  25592-3 0  9994
2 26474  67.9876 209.2497 0037265 111.1838 249.3299 15.09009475383852
ENVISAT                 
1 27386U 02009A   26005.89559443  .00000193  00000+0  76295-4 0  9992
2 27386  98.3632 321.0279 0001078  90.4272 337.3404 14.39010190250147
